ONEWEB-0216             
1 48801U 21045AL  23305.63960294 -.00004138  00000+0 -11012-1 0  9998
2 48801  87.8968  90.0504 0002272  91.8032 268.3359 13.15662788118275
ONEWEB-0239             
1 48802U 21045AM  23305.49225055 -.00003206  00000+0 -85491-2 0  9990
2 48802  87.8957  90.0344 0000934  62.2500 297.8725 13.15577884119436
ONEWEB-0249             
1 48967U 21060A   23305.57843615 -.00000304  00000+0 -82893-3 0  9996
2 48967  87.9078  59.5570 0001671 100.8227 259.3092 13.16595132113473
ONEWEB-0250             
1 48968U 21060B   23305.58266815  .00001134  00000+0  29320-2 0  9994
2 48968  87.9076  59.5415 0001272  97.3173 262.8102 13.16590385113451
ONEWEB-0252             
1 48970U 21060D   23305.61012559  .00002831  00000+0  73720-2 0  9993
2 48970  87.9075  59.5438 0002260  89.7073 270.4317 13.16581675113523
ONEWEB-0253             
1 48971U 21060E   23305.59955210 -.00000010  00000+0 -58884-4 0  9996
2 48971  87.9001  59.5951 0001480  88.3068 271.8232 13.16593510113459
ONEWEB-0254             
1 48972U 21060F   23305.60800797  .00004602  00000+0  12001-1 0  9995
2 48972  87.9076  59.5338 0001849  79.8248 280.3092 13.16574672113452
ONEWEB-0255             
1 48973U 21060G   23305.57000459 -.00001817  00000+0 -47873-2 0  9992
2 48973  87.9079  59.5770 0001814  95.4691 264.6647 13.16604776113522
